0 PSLV DEB
1 27653U 01049NQ  13282.68149541  .00001637  00000-0  24743-3 0  2691
2 27653 097.8411 242.4428 0067545 326.4225 157.9561 14.74082439605122
0 PSLV DEB
1 27653U 01049NQ  13287.14871649  .00001767  00000-0  26654-3 0  2718
2 27653 097.8420 246.7648 0067282 311.7743 104.4735 14.74096082605784
0 PSLV DEB
1 27653U 01049NQ  13289.74040633  .00002598  00000-0  38804-3 0  2721
2 27653 097.8419 249.2722 0067230 303.3976 178.0006 14.74107453606167
0 PSLV DEB
1 27653U 01049NQ  13292.17176135  .00002142  00000-0  32121-3 0  2731
2 27653 097.8429 251.6247 0067122 295.3867 120.9140 14.74118559606520
0 PSLV DEB
1 27653U 01049NQ  13294.69592770  .00002853  00000-0  42520-3 0  2741
2 27653 097.8434 254.0674 0067028 287.0765 196.4671 14.74129258606892
